*******************************************************************************
 Revised: Jun 15, 2007             Pioneer 11 Spacecraft / (Sun)            -24
                       http://nssdc.gsfc.nasa.gov/nmc/tmp/1973-019A.html

 BACKGROUND:

  This mission was the 2nd sent to the Jupiter system and the first to 
  investigate the planet Saturn and its ring system. 

  Closest approach to Jupiter cloud-tops was 42,000 km on Dec 3, 1974. It came 
  within 21,000 km of Saturn's cloud-tops on Sep 1, 1979. Pioneer 11, like 
  Pioneer 10, used Jupiter's gravitational field to alter its trajectory.

  Science operations and daily telemetry ceased on September 30, 1995 when the 
  RTG power level was insufficient to operate any experiments.

          Launched            : 1973-04-06 at 02:11:00 UTC
          On-orbit dry mass   : 259 kg
          Nominal Power Output: 165 W

 SPACECRAFT TRAJECTORY:

  NOTE: This trajectory is suitable for general historical purposes, but should
  be used cautiously for high precision or tracking-data applications. This is 
  due to potential dynamical mismatches between the Pioneer era models (DE-118,
  Lieske's E3 satellite theory of JUP035, SAT050, etc.) and the current modern 
  solutions used by Horizons. For example, the Pioneer 11 solutions used here 
  could reflect planet or satellite ephemeris corrections estimated at the time.
  Note that the transformation from the original DE-118 planetary ephemeris 
  coordinate system to the modern frame IS computed by Horizons.

  Trajectory provided by JPL Navigation Team.  JPL Multimission NAV and Solar 
  System Dynamics Group source files:
 
       PN11A, PN11AB ("AB" is not a typo), PN11C, PN11D, PN11E, 
       PN11FE ("FE" is not a typo), PN11G, DE118
 
  The circumstances pertaining to the regeneration of the spacecraft
  trajectory source files, PN11*, are not well known.
 
  DE118 is a standard JPL planet ephemeris for the P11 Jupiter encounter.
*******************************************************************************
 
 
*******************************************************************************
Ephemeris / WWW_USER Mon Jan 11 06:55:40 2010  Pasadena, USA     / Horizons    
*******************************************************************************
Target body name: Pioneer 11 Spacecraft (-24)     {source: pfile11.nio}
Center body name: Solar System Barycenter (0)     {source: DE405}
Center-site name: BODY CENTER
*******************************************************************************
Start time      : A.D. 1973-Apr-06 02:26:00.0000 CT 
Stop  time      : A.D. 2009-Nov-28 00:00:00.0000 CT 
Step-size       : 1440 minutes
*******************************************************************************
Center geodetic : 0.00000000,0.00000000,0.0000000 {E-lon(deg),Lat(deg),Alt(km)}
Center cylindric: 0.00000000,0.00000000,0.0000000 {E-lon(deg),Dxy(km),Dz(km)}
Center radii    : (undefined)                                                  
Output units    : AU-D                                                         
Output format   : 03
Reference frame : ICRF/J2000.0                                                 
Output type     : GEOMETRIC cartesian states
Coordinate systm: Ecliptic and Mean Equinox of Reference Epoch                 
*******************************************************************************
JDCT 
   X     Y     Z
   VX    VY    VZ
   LT    RG    RR
*******************************************************************************
$$SOE
2452482.601388889 = A.D. 2002-Jul-27 02:26:00.0000 (CT)
   8.169309075703071E+00 -5.810963754450830E+01  1.552115442891261E+01
   2.407336104259973E-03 -6.173973236801887E-03  1.494321347384892E-03
   3.505684355269860E-01  6.069904300015484E+01  6.616697599054538E-03
2452483.601388889 = A.D. 2002-Jul-28 02:26:00.0000 (CT)
   8.171716406397154E+00 -5.811581147925126E+01  1.552264873997737E+01
   2.407325284001301E-03 -6.173896252010532E-03  1.494300782959699E-03
   3.506066502655594E-01  6.070565967702825E+01  6.616656148633548E-03
2452484.601388889 = A.D. 2002-Jul-29 02:26:00.0000 (CT)
   8.174123726271151E+00 -5.812198533701796E+01  1.552414303048010E+01
   2.407314464059800E-03 -6.173819284210069E-03  1.494280223278512E-03
   3.506448647647490E-01  6.071227631245367E+01  6.616614702995669E-03
2452485.601388889 = A.D. 2002-Jul-30 02:26:00.0000 (CT)
   8.176531035325397E+00 -5.812815911782535E+01  1.552563730042552E+01
   2.407303644484572E-03 -6.173742333398747E-03  1.494259668341365E-03
   3.506830790245825E-01  6.071889290643585E+01  6.616573262151418E-03
2452486.601388889 = A.D. 2002-Jul-31 02:26:00.0000 (CT)
   8.178938333560241E+00 -5.813433282169041E+01  1.552713154981836E+01
   2.407292825262914E-03 -6.173665399571145E-03  1.494239118146569E-03
   3.507212930450873E-01  6.072550945897957E+01  6.616531826099047E-03
2452487.601388889 = A.D. 2002-Aug-01 02:26:00.0000 (CT)
   8.181345620976039E+00 -5.814050644863015E+01  1.552862577866339E+01
   2.407282006393150E-03 -6.173588482721377E-03  1.494218572692444E-03
   3.507595068262914E-01  6.073212597008965E+01  6.616490394837834E-03
2452488.601388889 = A.D. 2002-Aug-02 02:26:00.0000 (CT)
   8.183752897573143E+00 -5.814667999866150E+01  1.553011998696532E+01
   2.407271187876205E-03 -6.173511582843528E-03  1.494198031977363E-03
   3.507977203682223E-01  6.073874243977083E+01  6.616448968367401E-03
2452489.601388889 = A.D. 2002-Aug-03 02:26:00.0000 (CT)
   8.186160163351909E+00 -5.815285347180149E+01  1.553161417472892E+01
   2.407260369712829E-03 -6.173434699931883E-03  1.494177495999692E-03
   3.508359336709077E-01  6.074535886802796E+01  6.616407546687526E-03
2452490.601388889 = A.D. 2002-Aug-04 02:26:00.0000 (CT)
   8.188567418312688E+00 -5.815902686806703E+01  1.553310834195890E+01
   2.407249551903418E-03 -6.173357833980918E-03  1.494156964757771E-03
   3.508741467343752E-01  6.075197525486582E+01  6.616366129798114E-03
2452491.601388889 = A.D. 2002-Aug-05 02:26:00.0000 (CT)
   8.190974662455833E+00 -5.816520018747509E+01  1.553460248866001E+01
   2.407238734448499E-03 -6.173280984985161E-03  1.494136438249932E-03
   3.509123595586526E-01  6.075859160028916E+01  6.616324717699134E-03
2452492.601388889 = A.D. 2002-Aug-06 02:26:00.0000 (CT)
   8.193381895781704E+00 -5.817137343004264E+01  1.553609661483698E+01
   2.407227917348875E-03 -6.173204152939081E-03  1.494115916474548E-03
   3.509505721437675E-01  6.076520790430280E+01  6.616283310390544E-03
2452493.601388889 = A.D. 2002-Aug-07 02:26:00.0000 (CT)
   8.195789118290650E+00 -5.817754659578663E+01  1.553759072049454E+01
   2.407217100605096E-03 -6.173127337836844E-03  1.494095399430007E-03
   3.509887844897476E-01  6.077182416691154E+01  6.616241907871974E-03
2452494.601388889 = A.D. 2002-Aug-08 02:26:00.0000 (CT)
   8.198196329982999E+00 -5.818371968472394E+01  1.553908480563741E+01
   2.407206284218913E-03 -6.173050539673370E-03  1.494074887114682E-03
   3.510269965966202E-01  6.077844038812012E+01  6.616200510143931E-03
2452495.601388889 = A.D. 2002-Aug-09 02:26:00.0000 (CT)
   8.200603530859173E+00 -5.818989269687159E+01  1.554057887027034E+01
   2.407195468187186E-03 -6.172973758440719E-03  1.494054379526800E-03
   3.510652084644136E-01  6.078505656793340E+01  6.616159117203494E-03
2452496.601388889 = A.D. 2002-Aug-10 02:26:00.0000 (CT)
   8.203010720919494E+00 -5.819606563224647E+01  1.554207291439805E+01
   2.407184652513413E-03 -6.172896994135764E-03  1.494033876664782E-03
   3.511034200931550E-01  6.079167270635612E+01  6.616117729053280E-03
2452497.601388889 = A.D. 2002-Aug-11 02:26:00.0000 (CT)
   8.205417900164319E+00 -5.820223849086550E+01  1.554356693802525E+01
   2.407173837196859E-03 -6.172820246750721E-03  1.494013378526971E-03
   3.511416314828723E-01  6.079828880339309E+01  6.616076345690856E-03
2452498.601388889 = A.D. 2002-Aug-12 02:26:00.0000 (CT)
   8.207825068594007E+00 -5.820841127274561E+01  1.554506094115668E+01
   2.407163022239089E-03 -6.172743516282483E-03  1.493992885111783E-03
   3.511798426335933E-01  6.080490485904910E+01  6.616034967118599E-03
2452499.601388889 = A.D. 2002-Aug-13 02:26:00.0000 (CT)
   8.210232226208916E+00 -5.821458397790371E+01  1.554655492379705E+01
   2.407152207639752E-03 -6.172666802723850E-03  1.493972396417583E-03
   3.512180535453451E-01  6.081152087332893E+01  6.615993593334681E-03
2452500.601388889 = A.D. 2002-Aug-14 02:26:00.0000 (CT)
   8.212639373009406E+00 -5.822075660635669E+01  1.554804888595109E+01
   2.407141393399497E-03 -6.172590106069231E-03  1.493951912442721E-03
   3.512562642181558E-01  6.081813684623737E+01  6.615952224338956E-03
2452501.601388889 = A.D. 2002-Aug-15 02:26:00.0000 (CT)
   8.215046508995833E+00 -5.822692915812148E+01  1.554954282762350E+01
   2.407130579519120E-03 -6.172513426313308E-03  1.493931433185547E-03
   3.512944746520528E-01  6.082475277777921E+01  6.615910860131547E-03
2452502.601388889 = A.D. 2002-Aug-16 02:26:00.0000 (CT)
   8.217453634168564E+00 -5.823310163321494E+01  1.555103674881902E+01
   2.407119765999246E-03 -6.172436763450563E-03  1.493910958644418E-03
   3.513326848470640E-01  6.083136866795921E+01  6.615869500712366E-03
2452503.601388889 = A.D. 2002-Aug-17 02:26:00.0000 (CT)
   8.219860748527953E+00 -5.823927403165401E+01  1.555253064954237E+01
   2.407108952840322E-03 -6.172360117475245E-03  1.493890488817695E-03
   3.513708948032170E-01  6.083798451678224E+01  6.615828146081072E-03
2452504.601388889 = A.D. 2002-Aug-18 02:26:00.0000 (CT)
   8.222267852074365E+00 -5.824544635345553E+01  1.555402452979823E+01
   2.407098140042742E-03 -6.172283488381541E-03  1.493870023703740E-03
   3.514091045205393E-01  6.084460032425299E+01  6.615786796237258E-03
2452505.601388889 = A.D. 2002-Aug-19 02:26:00.0000 (CT)
   8.224674944808161E+00 -5.825161859863640E+01  1.555551838959134E+01
   2.407087327606982E-03 -6.172206876163744E-03  1.493849563300917E-03
   3.514473139990586E-01  6.085121609037630E+01  6.615745451180623E-03
